0 PORCUPINE 2
1 01577U 65065J   13282.44223240  .00000126  00000-0  22701-3 0   725
2 01577 089.8180 250.2146 0069116 206.9923 269.4694 13.35484770344430
0 PORCUPINE 2
1 01577U 65065J   13286.91544341  .00000078  00000-0  13299-3 0   749
2 01577 089.8188 250.1344 0069514 194.3039 175.6115 13.35485804345039
0 PORCUPINE 2
1 01577U 65065J   13289.17385684  .00000113  00000-0  20111-3 0   755
2 01577 089.8195 250.0937 0069716 187.9023 233.5354 13.35486148345333
0 PORCUPINE 2
1 01577U 65065J   13291.19755913  .00000114  00000-0  20379-3 0   764
2 01577 089.8199 250.0576 0069916 182.2122 242.9777 13.35486504345605
0 PORCUPINE 2
1 01577U 65065J   13293.39253660  .00000139  00000-0  25087-3 0   779
2 01577 089.8201 250.0188 0070124 176.0597 355.8499 13.35486884345895
0 PORCUPINE 2
1 01577U 65065J   13295.40302870  .00000150  00000-0  27328-3 0   785
2 01577 089.8202 249.9833 0070311 170.4311 301.7630 13.35487280346169
